      2.10          N: GNSS NAV DATA                        RINEX VERSION / TYPE
fic2rin                                 08/27/2023 00:17:50 PGM / RUN BY / DATE
                                                            END OF HEADER
10 23  8 26 22  0  0.0 -.508856028318D-04 -.159161572810D-11  .000000000000D+00
     .310000000000D+02 -.132687500000D+03  .398695178683D-08 -.109720301454D+01
    -.673905014992D-05  .873052130919D-02  .547431409359D-05  .515369290733D+04
     .597600000000D+06  .223517417908D-06  .179152693935D+01  .819563865662D-07
     .979775522440D+00  .280031250000D+03 -.244397226672D+01 -.790211486909D-08
     .507163982558D-10  .100000000000D+01  .227600000000D+04  .000000000000D+00
     .240000000000D+01  .000000000000D+00  .232830643654D-08  .310000000000D+02
     .590400000000D+06  .400000000000D+01
9  23  8 26 22  0  0.0 -.762855634093D-04  .100044417195D-10  .000000000000D+00
     .640000000000D+02 -.470937500000D+02  .465733685392D-08 -.259012139039D+01
    -.234134495258D-05  .265728856903D-02  .994466245174D-05  .515355772591D+04
     .597600000000D+06 -.204890966415D-07  .281733548325D+01  .279396772385D-07
     .956988121505D+00  .185593750000D+03  .194264604193D+01 -.787497088129D-08
     .496092092798D-09  .100000000000D+01  .227600000000D+04  .000000000000D+00
     .240000000000D+01  .000000000000D+00  .931322574615D-09  .640000000000D+02
     .590400000000D+06  .400000000000D+01
7  23  8 26 22  0  0.0  .845887698233D-04 -.106865627458D-10  .000000000000D+00
     .510000000000D+02  .110937500000D+02  .534272254584D-08  .305999124698D+00
     .778585672379D-06  .175282850396D-01  .658817589283D-05  .515371846962D+04
     .597600000000D+06 -.987201929092D-07 -.239434938473D+01  .130385160446D-06
     .950392518772D+00  .247781250000D+03 -.217536924728D+01 -.858928634968D-08
    -.685742849656D-10  .100000000000D+01  .227600000000D+04  .000000000000D+00
     .240000000000D+01  .000000000000D+00 -.111758708954D-07  .510000000000D+02
     .590400000000D+06  .400000000000D+01
6  23  8 26 22  0  0.0  .560514163226D-03 -.579802872380D-11  .000000000000D+00
     .530000000000D+02  .934375000000D+01  .382694512191D-08  .120170150730D+01
     .597909092903D-06  .270534318406D-02  .207871198654D-05  .515372946548D+04
     .597600000000D+06  .106170773506D-06  .755725809162D+00 -.745058059692D-07
     .989486824692D+00  .351937500000D+03 -.788968938695D+00 -.801711965950D-08
     .173935816553D-09  .100000000000D+01  .227600000000D+04  .000000000000D+00
     .240000000000D+01  .000000000000D+00  .372529029846D-08  .530000000000D+02
     .590400000000D+06  .400000000000D+01
4  23  8 26 22  0  0.0  .137581955642D-03  .113686837722D-10  .000000000000D+00
     .123000000000D+03 -.446250000000D+02  .448054377549D-08  .279232788177D+01
    -.215321779251D-05  .251785712317D-02  .992231070995D-05  .515363367844D+04
     .597600000000D+06 -.838190317154D-07  .287472312186D+01 -.577419996262D-07
     .963648705597D+00  .191625000000D+03 -.302843499072D+01 -.777746681985D-08
     .511807033103D-09  .100000000000D+01  .227600000000D+04  .000000000000D+00
     .240000000000D+01  .000000000000D+00 -.419095158577D-08  .123000000000D+03
     .590400000000D+06  .400000000000D+01
13 23  8 26 22  0  0.0  .565015245229D-03  .466116034659D-11  .000000000000D+00
     .510000000000D+02 -.360000000000D+02  .433839499728D-08  .279271873544D+01
    -.191479921341D-05  .739644898567D-02  .102203339338D-04  .515366864967D+04
     .597600000000D+06 -.577419996262D-07  .297897506903D+01 -.894069671631D-07
     .970574216838D+00  .188750000000D+03  .929038530321D+00 -.756781522988D-08
     .512164190837D-09  .100000000000D+01  .227600000000D+04  .000000000000D+00
     .240000000000D+01  .000000000000D+00 -.116415321827D-07  .510000000000D+02
     .590400000000D+06  .400000000000D+01
11 23  8 26 22  0  0.0 -.339230056852D-03 -.177351466846D-10  .000000000000D+00
     .100000000000D+02  .703125000000D+01  .438089676765D-08  .258821249589D+01
     .534579157829D-06  .108110415749D-02  .134296715260D-05  .515358835030D+04
     .597600000000D+06 -.707805156708D-07  .794964313455D+00 -.726431608200D-07
     .965749725135D+00  .352312500000D+03 -.281153004061D+01 -.833713298934D-08
     .166435504135D-09  .100000000000D+01  .227600000000D+04  .000000000000D+00
     .240000000000D+01  .000000000000D+00 -.838190317154D-08  .522000000000D+03
     .590400000000D+06  .400000000000D+01
14 23  8 26 22  0  0.0  .166178680956D-03  .115960574476D-10  .000000000000D+00
     .163000000000D+03  .242500000000D+02  .480019994760D-08 -.456320793558D+00
     .103004276752D-05  .351215840783D-02  .835396349430D-05  .515367741013D+04
     .597600000000D+06  .128522515297D-06 -.131911328913D+01  .540167093277D-07
     .947590512777D+00  .215093750000D+03 -.294484922351D+01 -.807497921244D-08
    -.653241495845D-09  .100000000000D+01  .227600000000D+04  .000000000000D+00
     .240000000000D+01  .000000000000D+00 -.791624188423D-08  .675000000000D+03
     .590400000000D+06  .400000000000D+01
31 23  8 26 22  0  0.0 -.222463160753D-03 -.568434188608D-12  .000000000000D+00
     .380000000000D+02  .140625000000D+02  .513414242907D-08 -.548448390220D+00
     .804662704468D-06  .104084294289D-01  .636838376522D-05  .515360267067D+04
     .597600000000D+06  .912696123123D-07 -.237397724838D+01  .132247805595D-06
     .954441675595D+00  .252843750000D+03  .573090175872D+00 -.823570019283D-08
     .328585115460D-10  .100000000000D+01  .227600000000D+04  .000000000000D+00
     .240000000000D+01  .000000000000D+00 -.130385160446D-07  .380000000000D+02
     .590400000000D+06  .400000000000D+01
32 23  8 26 22  0  0.0 -.547563191503D-03 -.659383658785D-11  .000000000000D+00
     .260000000000D+02 -.565625000000D+02  .449804450447D-08 -.248850858839D+01
    -.292062759399D-05  .695695762988D-02  .100247561932D-04  .515356725693D+04
     .597600000000D+06  .212341547012D-06  .283088197154D+01 -.502914190292D-07
     .960565915883D+00  .184343750000D+03 -.221939707034D+01 -.772925052574D-08
     .501092301077D-09  .100000000000D+01  .227600000000D+04  .000000000000D+00
     .240000000000D+01  .000000000000D+00  .465661287308D-09  .260000000000D+02
     .590400000000D+06  .400000000000D+01
29 23  8 26 22  0  0.0 -.608467496932D-03 -.568434188608D-12  .000000000000D+00
     .540000000000D+02  .130687500000D+03  .388980488313D-08  .309751741443D+01
     .668130815029D-05  .261610164307D-02  .751577317715D-05  .515372804070D+04
     .597600000000D+06  .391155481339D-07 -.225435313211D+00 -.223517417908D-07
     .975532068152D+00  .244562500000D+03  .253589732237D+01 -.778318134360D-08
    -.875036448780D-10  .100000000000D+01  .227600000000D+04  .000000000000D+00
     .240000000000D+01  .000000000000D+00 -.977888703346D-08  .540000000000D+02
     .590400000000D+06  .400000000000D+01
27 23  8 26 22  0  0.0 -.289673916996D-04 -.659383658785D-11  .000000000000D+00
     .510000000000D+02  .114281250000D+03  .395373611755D-08 -.306738441216D+01
     .586174428463D-05  .115804935340D-01  .800006091595D-05  .515367454529D+04
     .597600000000D+06  .186264514923D-07 -.306039986925D+00 -.109896063805D-06
     .966483941776D+00  .225281250000D+03  .741835527810D+00 -.766710507999D-08
    -.364300888880D-10  .100000000000D+01  .227600000000D+04  .000000000000D+00
     .240000000000D+01  .000000000000D+00  .139698386192D-08  .510000000000D+02
     .590400000000D+06  .400000000000D+01
16 23  8 26 22  0  0.0 -.462914817035D-03  .522959453519D-11  .000000000000D+00
     .430000000000D+02  .296875000000D+02  .432410868791D-08 -.215443083729D+01
     .155903398991D-05  .133398704929D-01  .922381877899D-05  .515364691353D+04
     .597600000000D+06  .502914190292D-07 -.126081881394D+01 -.108033418655D-06
     .963905950963D+00  .202531250000D+03  .791242943907D+00 -.762388899415D-08
    -.510735559900D-09  .100000000000D+01  .227600000000D+04  .000000000000D+00
     .240000000000D+01  .000000000000D+00 -.102445483208D-07  .430000000000D+02
     .590400000000D+06  .400000000000D+01
30 23  8 26 22  0  0.0 -.493164639920D-03  .318323145621D-11  .000000000000D+00
     .480000000000D+02  .118437500000D+02  .558487548962D-08  .222485371089D+00
     .622123479843D-06  .658202276099D-02  .629760324955D-05  .515376703453D+04
     .597600000000D+06 -.335276126862D-07 -.238962733240D+01 -.130385160446D-07
     .935519286671D+00  .241156250000D+03 -.254666992195D+01 -.853714132049D-08
    -.553594488004D-10  .100000000000D+01  .227600000000D+04  .000000000000D+00
     .240000000000D+01  .000000000000D+00  .372529029846D-08  .480000000000D+02
     .590400000000D+06  .400000000000D+01
15 23  8 26 22  0  0.0  .715516507626D-04  .363797880709D-11  .000000000000D+00
     .480000000000D+02 -.765000000000D+02  .505271046567D-08  .215824947333D+01
    -.402331352234D-05  .153147451347D-01  .104941427708D-04  .515377273560D+04
     .597600000000D+06  .409781932831D-07  .269662961660D+01 -.284984707832D-06
     .933389908465D+00  .162531250000D+03  .123328515669D+01 -.788461414011D-08
     .495734935064D-09  .100000000000D+01  .227600000000D+04  .000000000000D+00
     .240000000000D+01  .000000000000D+00 -.107102096081D-07  .480000000000D+02
     .590400000000D+06  .400000000000D+01
20 23  8 26 22  0  0.0  .415126327425D-03 -.204636307899D-11  .000000000000D+00
     .570000000000D+02 -.115906250000D+03  .470162441296D-08  .185143947362D+01
    -.613369047642D-05  .407086254563D-02  .448338687420D-05  .515361160469D+04
     .597600000000D+06 -.484287738800D-07  .162227303613D+01  .651925802231D-07
     .949564068263D+00  .282531250000D+03 -.286349594097D+01 -.833570435840D-08
    -.203579908492D-10  .100000000000D+01  .227600000000D+04  .000000000000D+00
     .340000000000D+01  .000000000000D+00 -.838190317154D-08  .570000000000D+02
     .590400000000D+06  .400000000000D+01
